{
  "type": "FeatureCollection",
  "features": [
    {
      "type": "Feature",
      "properties": {
        "norad_id": 38867,
        "name": "INTELSAT 23 (IS-23)",
        "group": "intelsat",
        "lat": -0.007641587571444038,
        "lon": 21.25411254665062,
        "alt_km": 35789.2116495432,
        "timestamp": "2025-12-24T22:42:21.690081+00:00",
        "meta_object_name": "INTELSAT 23 (IS-23)",
        "meta_object_id": "2012-057A",
        "meta_epoch": "2025-12-24T06:00:30.893184",
        "meta_mean_motion": 1.00259571,
        "meta_eccentricity": 3.226e-05,
        "meta_inclination": 0.0157,
        "meta_ra_of_asc_node": 47.8296,
        "meta_arg_of_pericenter": 47.4441,
        "meta_mean_anomaly": 34.8739,
        "meta_ephemeris_type": 0,
        "meta_classification_type": "U",
        "meta_norad_cat_id": 38867,
        "meta_element_set_no": 999,
        "meta_rev_at_epoch": 4820,
        "meta_bstar": 0,
        "meta_mean_motion_dot": -2.64e-06,
        "meta_mean_motion_ddot": 0,
        "tle_line1": "1 38867U 12057A   25358.25035756 -.00000264  00000+0  00000+0 0  9994",
        "tle_line2": "2 38867   0.0157  47.8296 0000322  47.4441  34.8739  1.00259571 48202"
      },
      "geometry": {
        "type": "Point",
        "coordinates": [
          21.25411254665062,
          -0.007641587571444038
        ]
      }
    },
    {
      "type": "Feature",
      "properties": {
        "norad_id": 39360,
        "name": "FM-6",
        "group": "intelsat",
        "lat": -0.02949414094621151,
        "lon": -41.86249183958041,
        "alt_km": 35796.652202716235,
        "timestamp": "2025-12-24T22:42:21.690093+00:00",
        "meta_object_name": "FM-6",
        "meta_object_id": "2013-058A",
        "meta_epoch": "2025-12-24T05:59:38.935680",
        "meta_mean_motion": 1.00270521,
        "meta_eccentricity": 0.00029846,
        "meta_inclination": 0.0166,
        "meta_ra_of_asc_node": 70.249,
        "meta_arg_of_pericenter": 103.1818,
        "meta_mean_anomaly": 253.332,
        "meta_ephemeris_type": 0,
        "meta_classification_type": "U",
        "meta_norad_cat_id": 39360,
        "meta_element_set_no": 999,
        "meta_rev_at_epoch": 4431,
        "meta_bstar": 0,
        "meta_mean_motion_dot": 4e-08,
        "meta_mean_motion_ddot": 0,
        "tle_line1": "1 39360U 13058A   25358.24975620  .00000004  00000+0  00000+0 0  9998",
        "tle_line2": "2 39360   0.0166  70.2490 0002984 103.1818 253.3320  1.00270521 44311"
      },
      "geometry": {
        "type": "Point",
        "coordinates": [
          -41.86249183958041,
          -0.02949414094621151
        ]
      }
    },
    {
      "type": "Feature",
      "properties": {
        "norad_id": 40271,
        "name": "INTELSAT 30 (IS-30)",
        "group": "intelsat",
        "lat": -0.023417706716224757,
        "lon": -20.779982045059214,
        "alt_km": 35789.04251704635,
        "timestamp": "2025-12-24T22:42:21.690105+00:00",
        "meta_object_name": "INTELSAT 30 (IS-30)",
        "meta_object_id": "2014-062A",
        "meta_epoch": "2025-12-24T07:00:35.482176",
        "meta_mean_motion": 1.00269786,
        "meta_eccentricity": 0.00015421,
        "meta_inclination": 0.0134,
        "meta_ra_of_asc_node": 27.2277,
        "meta_arg_of_pericenter": 63.2332,
        "meta_mean_anomaly": 12.6997,
        "meta_ephemeris_type": 0,
        "meta_classification_type": "U",
        "meta_norad_cat_id": 40271,
        "meta_element_set_no": 999,
        "meta_rev_at_epoch": 504,
        "meta_bstar": 0,
        "meta_mean_motion_dot": -1.3e-06,
        "meta_mean_motion_ddot": 0,
        "tle_line1": "1 40271U 14062A   25358.29207734 -.00000130  00000+0  00000+0 0  9997",
        "tle_line2": "2 40271   0.0134  27.2277 0001542  63.2332  12.6997  1.00269786  5044"
      },
      "geometry": {
        "type": "Point",
        "coordinates": [
          -20.779982045059214,
          -0.023417706716224757
        ]
      }
    },
    {
      "type": "Feature",
      "properties": {
        "norad_id": 40333,
        "name": "DIRECTV 14",
        "group": "intelsat",
        "lat": -0.017056781235283845,
        "lon": -24.938665819183235,
        "alt_km": 35788.57058907948,
        "timestamp": "2025-12-24T22:42:21.690116+00:00",
        "meta_object_name": "DIRECTV 14",
        "meta_object_id": "2014-078B",
        "meta_epoch": "2025-12-24T05:46:54.695712",
        "meta_mean_motion": 1.00265111,
        "meta_eccentricity": 2.383e-05,
        "meta_inclination": 0.0019,
        "meta_ra_of_asc_node": 34.998,
        "meta_arg_of_pericenter": 66.4789,
        "meta_mean_anomaly": 339.0525,
        "meta_ephemeris_type": 0,
        "meta_classification_type": "U",
        "meta_norad_cat_id": 40333,
        "meta_element_set_no": 999,
        "meta_rev_at_epoch": 4028,
        "meta_bstar": 0,
        "meta_mean_motion_dot": -1.04e-06,
        "meta_mean_motion_ddot": 0,
        "tle_line1": "1 40333U 14078B   25358.24091083 -.00000104  00000+0  00000+0 0  9997",
        "tle_line2": "2 40333   0.0019  34.9980 0000238  66.4789 339.0525  1.00265111 40289"
      },
      "geometry": {
        "type": "Point",
        "coordinates": [
          -24.938665819183235,
          -0.017056781235283845
        ]
      }
    },
    {
      "type": "Feature",
      "properties": {
        "norad_id": 40663,
        "name": "DIRECTV 15",
        "group": "intelsat",
        "lat": -0.03132483837237558,
        "lon": -28.592738162089915,
        "alt_km": 35789.10921795488,
        "timestamp": "2025-12-24T22:42:21.690128+00:00",
        "meta_object_name": "DIRECTV 15",
        "meta_object_id": "2015-026A",
        "meta_epoch": "2025-12-24T05:45:47.302848",
        "meta_mean_motion": 1.00268312,
        "meta_eccentricity": 5.031e-05,
        "meta_inclination": 0.0214,
        "meta_ra_of_asc_node": 20.6929,
        "meta_arg_of_pericenter": 145.8822,
        "meta_mean_anomaly": 270.0068,
        "meta_ephemeris_type": 0,
        "meta_classification_type": "U",
        "meta_norad_cat_id": 40663,
        "meta_element_set_no": 999,
        "meta_rev_at_epoch": 3870,
        "meta_bstar": 0,
        "meta_mean_motion_dot": 0,
        "meta_mean_motion_ddot": 0,
        "tle_line1": "1 40663U 15026A   25358.24013082  .00000000  00000+0  00000+0 0  9994",
        "tle_line2": "2 40663   0.0214  20.6929 0000503 145.8822 270.0068  1.00268312 38708"
      },
      "geometry": {
        "type": "Point",
        "coordinates": [
          -28.592738162089915,
          -0.03132483837237558
        ]
      }
    },
    {
      "type": "Feature",
      "properties": {
        "norad_id": 40664,
        "name": "SKY MEXICO-1",
        "group": "intelsat",
        "lat": 0.00012161280756514942,
        "lon": -4.4451458810841995,
        "alt_km": 35782.248290018244,
        "timestamp": "2025-12-24T22:42:21.690140+00:00",
        "meta_object_name": "SKY MEXICO-1",
        "meta_object_id": "2015-026B",
        "meta_epoch": "2025-12-24T07:10:03.735840",
        "meta_mean_motion": 1.00270371,
        "meta_eccentricity": 0.00024911,
        "meta_inclination": 0.0084,
        "meta_ra_of_asc_node": 342.1449,
        "meta_arg_of_pericenter": 307.4864,
        "meta_mean_anomaly": 192.1944,
        "meta_ephemeris_type": 0,
        "meta_classification_type": "U",
        "meta_norad_cat_id": 40664,
        "meta_element_set_no": 999,
        "meta_rev_at_epoch": 3870,
        "meta_bstar": 0,
        "meta_mean_motion_dot": -2.13e-06,
        "meta_mean_motion_ddot": 0,
        "tle_line1": "1 40664U 15026B   25358.29865435 -.00000213  00000+0  00000+0 0  9994",
        "tle_line2": "2 40664   0.0084 342.1449 0002491 307.4864 192.1944  1.00270371 38708"
      },
      "geometry": {
        "type": "Point",
        "coordinates": [
          -4.4451458810841995,
          0.00012161280756514942
        ]
      }
    },
    {
      "type": "Feature",
      "properties": {
        "norad_id": 40874,
        "name": "INTELSAT 34 (IS-34)",
        "group": "intelsat",
        "lat": 0.014113118172347023,
        "lon": 18.795554707586607,
        "alt_km": 35788.904902589056,
        "timestamp": "2025-12-24T22:42:21.690151+00:00",
        "meta_object_name": "INTELSAT 34 (IS-34)",
        "meta_object_id": "2015-039A",
        "meta_epoch": "2025-12-24T05:59:16.012896",
        "meta_mean_motion": 1.00270249,
        "meta_eccentricity": 6.867e-05,
        "meta_inclination": 0.0128,
        "meta_ra_of_asc_node": 316.008,
        "meta_arg_of_pericenter": 206.3361,
        "meta_mean_anomaly": 325.0065,
        "meta_ephemeris_type": 0,
        "meta_classification_type": "U",
        "meta_norad_cat_id": 40874,
        "meta_element_set_no": 999,
        "meta_rev_at_epoch": 3787,
        "meta_bstar": 0,
        "meta_mean_motion_dot": -2.64e-06,
        "meta_mean_motion_ddot": 0,
        "tle_line1": "1 40874U 15039A   25358.24949089 -.00000264  00000+0  00000+0 0  9990",
        "tle_line2": "2 40874   0.0128 316.0080 0000686 206.3361 325.0065  1.00270249 37876"
      },
      "geometry": {
        "type": "Point",
        "coordinates": [
          18.795554707586607,
          0.014113118172347023
        ]
      }
    }
  ]
}